[{"OBJECT_NAME":"YAOGAN-9 01B","OBJECT_ID":"2010-009B","EPOCH":"2026-03-09T21:36:43.133472","MEAN_MOTION":13.45689777,"ECCENTRICITY":0.05298959,"INCLINATION":63.3654,"RA_OF_ASC_NODE":254.758,"ARG_OF_PERICENTER":20.1216,"MEAN_ANOMALY":341.9863,"EPHEMERIS_TYPE":0,"CLASSIFICATION_TYPE":"U","NORAD_CAT_ID":36414,"ELEMENT_SET_NO":999,"REV_AT_EPOCH":78638,"BSTAR":7.8644801e-5,"MEAN_MOTION_DOT":1.9e-7,"MEAN_MOTION_DDOT":0},{"OBJECT_NAME":"SL-8 R\/B","OBJECT_ID":"1974-001B","EPOCH":"2026-03-09T19:22:58.576224","MEAN_MOTION":13.79049276,"ECCENTRICITY":0.00374078,"INCLINATION":82.9528,"RA_OF_ASC_NODE":182.3192,"ARG_OF_PERICENTER":178.7904,"MEAN_ANOMALY":181.3352,"EPHEMERIS_TYPE":0,"CLASSIFICATION_TYPE":"U","NORAD_CAT_ID":7095,"ELEMENT_SET_NO":999,"REV_AT_EPOCH":62182,"BSTAR":5.0965995e-5,"MEAN_MOTION_DOT":6.8e-7,"MEAN_MOTION_DDOT":0}]
